CCSDS_OMM_VERS = 2.0
CREATION_DATE  = 
ORIGINATOR     = 

OBJECT_NAME    = STARLINK-36482
OBJECT_ID      = 2026-002E
CENTER_NAME    = EARTH
REF_FRAME      = TEME
TIME_SYSTEM    = UTC
MEAN_ELEMENT_THEORY = SGP/SGP4

EPOCH          = 2026-01-17T06:00:02.000160
MEAN_MOTION    = 15.82273994
ECCENTRICITY   = .00017677
INCLINATION    = 42.9968
RA_OF_ASC_NODE = 261.9378
ARG_OF_PERICENTER = 270.4949
MEAN_ANOMALY   = 9.7193

EPHEMERIS_TYPE = 0
CLASSIFICATION_TYPE = U
NORAD_CAT_ID   = 67309
ELEMENT_SET_NO = 999
REV_AT_EPOCH   = 314
BSTAR          = -.774488E-2
MEAN_MOTION_DOT = -.1461996E-1
MEAN_MOTION_DDOT = 0

CCSDS_OMM_VERS = 2.0
CREATION_DATE  = 
ORIGINATOR     = 

OBJECT_NAME    = STARLINK-36491
OBJECT_ID      = 2026-002F
CENTER_NAME    = EARTH
REF_FRAME      = TEME
TIME_SYSTEM    = UTC
MEAN_ELEMENT_THEORY = SGP/SGP4

EPOCH          = 2026-01-17T06:00:02.000160
MEAN_MOTION    = 15.82388613
ECCENTRICITY   = .00017763
INCLINATION    = 42.9969
RA_OF_ASC_NODE = 261.9789
ARG_OF_PERICENTER = 272.1495
MEAN_ANOMALY   = 351.5841

EPHEMERIS_TYPE = 0
CLASSIFICATION_TYPE = U
NORAD_CAT_ID   = 67310
ELEMENT_SET_NO = 999
REV_AT_EPOCH   = 314
BSTAR          = -.69222148E-2
MEAN_MOTION_DOT = -.1305205E-1
MEAN_MOTION_DDOT = 0

CCSDS_OMM_VERS = 2.0
CREATION_DATE  = 
ORIGINATOR     = 

OBJECT_NAME    = STARLINK-36495
OBJECT_ID      = 2026-002G
CENTER_NAME    = EARTH
REF_FRAME      = TEME
TIME_SYSTEM    = UTC
MEAN_ELEMENT_THEORY = SGP/SGP4

EPOCH          = 2026-01-17T06:00:02.000160
MEAN_MOTION    = 15.82347475
ECCENTRICITY   = .00017881
INCLINATION    = 42.9967
RA_OF_ASC_NODE = 261.9611
ARG_OF_PERICENTER = 275.0809
MEAN_ANOMALY   = 355.6203

EPHEMERIS_TYPE = 0
CLASSIFICATION_TYPE = U
NORAD_CAT_ID   = 67311
ELEMENT_SET_NO = 999
REV_AT_EPOCH   = 330
BSTAR          = -.71313237E-2
MEAN_MOTION_DOT = -.1337404E-1
MEAN_MOTION_DDOT = 0

CCSDS_OMM_VERS = 2.0
CREATION_DATE  = 
ORIGINATOR     = 

OBJECT_NAME    = STARLINK-36485
OBJECT_ID      = 2026-002H
CENTER_NAME    = EARTH
REF_FRAME      = TEME
TIME_SYSTEM    = UTC
MEAN_ELEMENT_THEORY = SGP/SGP4

EPOCH          = 2026-01-17T06:00:02.000160
MEAN_MOTION    = 15.82310136
ECCENTRICITY   = .00018322
INCLINATION    = 42.9969
RA_OF_ASC_NODE = 261.9543
ARG_OF_PERICENTER = 271.0855
MEAN_ANOMALY   = 2.3308

EPHEMERIS_TYPE = 0
CLASSIFICATION_TYPE = U
NORAD_CAT_ID   = 67312
ELEMENT_SET_NO = 999
REV_AT_EPOCH   = 314
BSTAR          = -.73546131E-2
MEAN_MOTION_DOT = -.1398572E-1
MEAN_MOTION_DDOT = 0

CCSDS_OMM_VERS = 2.0
CREATION_DATE  = 
ORIGINATOR     = 

OBJECT_NAME    = STARLINK-36445
OBJECT_ID      = 2026-002J
CENTER_NAME    = EARTH
REF_FRAME      = TEME
TIME_SYSTEM    = UTC
MEAN_ELEMENT_THEORY = SGP/SGP4

EPOCH          = 2026-01-17T06:00:02.000160
MEAN_MOTION    = 15.82328933
ECCENTRICITY   = .00017567
INCLINATION    = 42.9966
RA_OF_ASC_NODE = 261.9493
ARG_OF_PERICENTER = 273.4433
MEAN_ANOMALY   = 1.8508

EPHEMERIS_TYPE = 0
CLASSIFICATION_TYPE = U
NORAD_CAT_ID   = 67313
ELEMENT_SET_NO = 999
REV_AT_EPOCH   = 330
BSTAR          = -.73974727E-2
MEAN_MOTION_DOT = -.1406892E-1
MEAN_MOTION_DDOT = 0

CCSDS_OMM_VERS = 2.0
CREATION_DATE  = 
ORIGINATOR     = 

OBJECT_NAME    = STARLINK-36476
OBJECT_ID      = 2026-002K
CENTER_NAME    = EARTH
REF_FRAME      = TEME
TIME_SYSTEM    = UTC
MEAN_ELEMENT_THEORY = SGP/SGP4

EPOCH          = 2026-01-17T06:00:02.000160
MEAN_MOTION    = 15.82289248
ECCENTRICITY   = .00017782
INCLINATION    = 42.9969
RA_OF_ASC_NODE = 261.9429
ARG_OF_PERICENTER = 270.4177
MEAN_ANOMALY   = 7.5663

EPHEMERIS_TYPE = 0
CLASSIFICATION_TYPE = U
NORAD_CAT_ID   = 67314
ELEMENT_SET_NO = 999
REV_AT_EPOCH   = 314
BSTAR          = -.76632445E-2
MEAN_MOTION_DOT = -.1449278E-1
MEAN_MOTION_DDOT = 0

CCSDS_OMM_VERS = 2.0
CREATION_DATE  = 
ORIGINATOR     = 

OBJECT_NAME    = STARLINK-36463
OBJECT_ID      = 2026-002L
CENTER_NAME    = EARTH
REF_FRAME      = TEME
TIME_SYSTEM    = UTC
MEAN_ELEMENT_THEORY = SGP/SGP4

EPOCH          = 2026-01-17T06:00:02.000160
MEAN_MOTION    = 15.82246098
ECCENTRICITY   = .00017971
INCLINATION    = 42.9966
RA_OF_ASC_NODE = 261.9307
ARG_OF_PERICENTER = 268.8807
MEAN_ANOMALY   = 13.6969

EPHEMERIS_TYPE = 0
CLASSIFICATION_TYPE = U
NORAD_CAT_ID   = 67315
ELEMENT_SET_NO = 999
REV_AT_EPOCH   = 320
BSTAR          = -.78537814E-2
MEAN_MOTION_DOT = -.1478449E-1
MEAN_MOTION_DDOT = 0

CCSDS_OMM_VERS = 2.0
CREATION_DATE  = 
ORIGINATOR     = 

OBJECT_NAME    = STARLINK-36461
OBJECT_ID      = 2026-002M
CENTER_NAME    = EARTH
REF_FRAME      = TEME
TIME_SYSTEM    = UTC
MEAN_ELEMENT_THEORY = SGP/SGP4

EPOCH          = 2026-01-17T06:00:02.000160
MEAN_MOTION    = 15.82165540
ECCENTRICITY   = .00017409
INCLINATION    = 42.9966
RA_OF_ASC_NODE = 261.9236
ARG_OF_PERICENTER = 272.0966
MEAN_ANOMALY   = 13.3074

EPHEMERIS_TYPE = 0
CLASSIFICATION_TYPE = U
NORAD_CAT_ID   = 67316
ELEMENT_SET_NO = 999
REV_AT_EPOCH   = 330
BSTAR          = -.79651381E-2
MEAN_MOTION_DOT = -.1491856E-1
MEAN_MOTION_DDOT = 0

CCSDS_OMM_VERS = 2.0
CREATION_DATE  = 
ORIGINATOR     = 

OBJECT_NAME    = STARLINK-36450
OBJECT_ID      = 2026-002N
CENTER_NAME    = EARTH
REF_FRAME      = TEME
TIME_SYSTEM    = UTC
MEAN_ELEMENT_THEORY = SGP/SGP4

EPOCH          = 2026-01-17T06:00:02.000160
MEAN_MOTION    = 15.82132479
ECCENTRICITY   = .00017399
INCLINATION    = 42.9967
RA_OF_ASC_NODE = 261.9178
ARG_OF_PERICENTER = 272.0888
MEAN_ANOMALY   = 15.6292

EPHEMERIS_TYPE = 0
CLASSIFICATION_TYPE = U
NORAD_CAT_ID   = 67317
ELEMENT_SET_NO = 999
REV_AT_EPOCH   = 330
BSTAR          = -.80029214E-2
MEAN_MOTION_DOT = -.1496026E-1
MEAN_MOTION_DDOT = 0

CCSDS_OMM_VERS = 2.0
CREATION_DATE  = 
ORIGINATOR     = 

OBJECT_NAME    = STARLINK-36498
OBJECT_ID      = 2026-002P
CENTER_NAME    = EARTH
REF_FRAME      = TEME
TIME_SYSTEM    = UTC
MEAN_ELEMENT_THEORY = SGP/SGP4

EPOCH          = 2026-01-17T06:00:02.000160
MEAN_MOTION    = 15.82048484
ECCENTRICITY   = .00017943
INCLINATION    = 42.9966
RA_OF_ASC_NODE = 261.9056
ARG_OF_PERICENTER = 271.9497
MEAN_ANOMALY   = 20.5857

EPHEMERIS_TYPE = 0
CLASSIFICATION_TYPE = U
NORAD_CAT_ID   = 67318
ELEMENT_SET_NO = 999
REV_AT_EPOCH   = 320
BSTAR          = -.81460954E-2
MEAN_MOTION_DOT = -.15143E-1
MEAN_MOTION_DDOT = 0

CCSDS_OMM_VERS = 2.0
CREATION_DATE  = 
ORIGINATOR     = 

OBJECT_NAME    = STARLINK-36470
OBJECT_ID      = 2026-002Q
CENTER_NAME    = EARTH
REF_FRAME      = TEME
TIME_SYSTEM    = UTC
MEAN_ELEMENT_THEORY = SGP/SGP4

EPOCH          = 2026-01-17T06:00:02.000160
MEAN_MOTION    = 15.82094297
ECCENTRICITY   = .00017772
INCLINATION    = 42.9968
RA_OF_ASC_NODE = 261.9118
ARG_OF_PERICENTER = 269.5368
MEAN_ANOMALY   = 20.5880

EPHEMERIS_TYPE = 0
CLASSIFICATION_TYPE = U
NORAD_CAT_ID   = 67319
ELEMENT_SET_NO = 999
REV_AT_EPOCH   = 320
BSTAR          = -.8079434E-2
MEAN_MOTION_DOT = -.1506247E-1
MEAN_MOTION_DDOT = 0

CCSDS_OMM_VERS = 2.0
CREATION_DATE  = 
ORIGINATOR     = 

OBJECT_NAME    = STARLINK-36500
OBJECT_ID      = 2026-002R
CENTER_NAME    = EARTH
REF_FRAME      = TEME
TIME_SYSTEM    = UTC
MEAN_ELEMENT_THEORY = SGP/SGP4

EPOCH          = 2026-01-17T06:00:02.000160
MEAN_MOTION    = 15.82012056
ECCENTRICITY   = .00017575
INCLINATION    = 42.9970
RA_OF_ASC_NODE = 261.9001
ARG_OF_PERICENTER = 272.5157
MEAN_ANOMALY   = 22.3710

EPHEMERIS_TYPE = 0
CLASSIFICATION_TYPE = U
NORAD_CAT_ID   = 67320
ELEMENT_SET_NO = 999
REV_AT_EPOCH   = 320
BSTAR          = -.81967316E-2
MEAN_MOTION_DOT = -.1520239E-1
MEAN_MOTION_DDOT = 0

