STARLINK-36482          
1 67309U 26002E   26017.25002315 -.01461996  00000+0 -77449-2 0  9999
2 67309  42.9968 261.9378 0001767 270.4949   9.7193 15.82273994  3144
STARLINK-36491          
1 67310U 26002F   26017.25002315 -.01305205  00000+0 -69222-2 0  9991
2 67310  42.9969 261.9789 0001776 272.1495 351.5841 15.82388613  3141
STARLINK-36495          
1 67311U 26002G   26017.25002315 -.01337404  00000+0 -71313-2 0  9992
2 67311  42.9967 261.9611 0001788 275.0809 355.6203 15.82347475  3304
STARLINK-36485          
1 67312U 26002H   26017.25002315 -.01398572  00000+0 -73546-2 0  9996
2 67312  42.9969 261.9543 0001832 271.0855   2.3308 15.82310136  3146
STARLINK-36445          
1 67313U 26002J   26017.25002315 -.01406892  00000+0 -73975-2 0  9998
2 67313  42.9966 261.9493 0001756 273.4433   1.8508 15.82328933  3309
STARLINK-36476          
1 67314U 26002K   26017.25002315 -.01449278  00000+0 -76632-2 0  9997
2 67314  42.9969 261.9429 0001778 270.4177   7.5663 15.82289248  3140
STARLINK-36463          
1 67315U 26002L   26017.25002315 -.01478449  00000+0 -78538-2 0  9997
2 67315  42.9966 261.9307 0001797 268.8807  13.6969 15.82246098  3205
STARLINK-36461          
1 67316U 26002M   26017.25002315 -.01491856  00000+0 -79651-2 0  9992
2 67316  42.9966 261.9236 0001740 272.0966  13.3074 15.82165540  3305
STARLINK-36450          
1 67317U 26002N   26017.25002315 -.01496026  00000+0 -80029-2 0  9998
2 67317  42.9967 261.9178 0001739 272.0888  15.6292 15.82132479  3305
STARLINK-36498          
1 67318U 26002P   26017.25002315 -.01514300  00000+0 -81461-2 0  9996
2 67318  42.9966 261.9056 0001794 271.9497  20.5857 15.82048484  3208
STARLINK-36470          
1 67319U 26002Q   26017.25002315 -.01506247  00000+0 -80794-2 0  9996
2 67319  42.9968 261.9118 0001777 269.5368  20.5880 15.82094297  3200
STARLINK-36500          
1 67320U 26002R   26017.25002315 -.01520239  00000+0 -81967-2 0  9998
2 67320  42.9970 261.9001 0001757 272.5157  22.3710 15.82012056  3209
